[{"OBJECT_NAME":"STARLINK-34482","OBJECT_ID":"2025-147AD","EPOCH":"2026-03-09T18:07:05.316960","MEAN_MOTION":15.30234539,"ECCENTRICITY":8.885e-5,"INCLINATION":53.1587,"RA_OF_ASC_NODE":242.3034,"ARG_OF_PERICENTER":71.6135,"MEAN_ANOMALY":288.4962,"EPHEMERIS_TYPE":0,"CLASSIFICATION_TYPE":"U","NORAD_CAT_ID":64782,"ELEMENT_SET_NO":999,"REV_AT_EPOCH":3880,"BSTAR":0.00088132818,"MEAN_MOTION_DOT":0.00025862,"MEAN_MOTION_DDOT":0},{"OBJECT_NAME":"TRANSPORTER-1 OBJECT L","OBJECT_ID":"2021-006L","EPOCH":"2026-03-09T22:38:42.795168","MEAN_MOTION":15.33192932,"ECCENTRICITY":0.00114726,"INCLINATION":97.2368,"RA_OF_ASC_NODE":117.6447,"ARG_OF_PERICENTER":180.5165,"MEAN_ANOMALY":179.6068,"EPHEMERIS_TYPE":0,"CLASSIFICATION_TYPE":"U","NORAD_CAT_ID":47423,"ELEMENT_SET_NO":999,"REV_AT_EPOCH":28445,"BSTAR":0.00025636794,"MEAN_MOTION_DOT":8.162e-5,"MEAN_MOTION_DDOT":0}]
